NORAD_CAT_ID,OBJECT_NAME,OBJECT_TYPE,EPOCH,MEAN_MOTION,ECCENTRICITY,INCLINATION,RA_OF_ASC_NODE,ARG_OF_PERICENTER,MEAN_ANOMALY,BSTAR,MEAN_MOTION_DOT,MEAN_MOTION_DDOT,TLE_LINE0,TLE_LINE1,TLE_LINE2,SEMIMAJOR_AXIS,PERIOD,APOGEE,PERIGEE,DECAYED
53798.0,STARLINK-4712,PAYLOAD,2023-12-17 03:23:59,15.08839721,0.0001652,53.2178,325.8841,69.778,290.339,1.2825e-05,-8.4e-07,0.0,0 STARLINK-4712,1 53798U 22111AB  23351.14166435 -.00000084  00000-0  12825-4 0  9998,2 53798  53.2178 325.8841 0001652  69.7780 290.3390 15.08839721 70054,6917.881,95.438,540.889,538.603,0.0
53798.0,STARLINK-4712,PAYLOAD,2023-12-17 04:59:22,15.08842197,0.0001504,53.2177,325.585,88.7751,271.3413,4.1939e-05,3.8e-06,0.0,0 STARLINK-4712,1 53798U 22111AB  23351.20790110  .00000380  00000-0  41939-4 0  9994,2 53798  53.2177 325.5850 0001504  88.7751 271.3413 15.08842197 70871,6917.874,95.437,540.779,538.698,0.0
53798.0,STARLINK-4712,PAYLOAD,2023-12-18 03:14:45,15.08852381,0.0001448,53.2172,321.4164,87.8929,272.2229,0.00026518,3.936e-05,0.0,0 STARLINK-4712,1 53798U 22111AB  23352.13525419  .00003936  00000-0  26518-3 0  9990,2 53798  53.2172 321.4164 0001448  87.8929 272.2229 15.08852381 70201,6917.843,95.437,540.709,538.706,0.0
53798.0,STARLINK-4712,PAYLOAD,2023-12-18 04:50:09,15.0885231,0.0001448,53.2172,321.1201,87.4441,272.6716,0.00025628,3.794e-05,0.0,0 STARLINK-4712,1 53798U 22111AB  23352.20149381  .00003794  00000-0  25628-3 0  9991,2 53798  53.2172 321.1201 0001448  87.4441 272.6716 15.08852310 71023,6917.843,95.437,540.709,538.706,0.0
53798.0,STARLINK-4712,PAYLOAD,2023-12-19 03:05:34,15.08831926,0.0001731,53.2187,316.9561,120.3283,239.7881,-7.0593e-05,-1.411e-05,0.0,0 STARLINK-4712,1 53798U 22111AB  23353.12886619 -.00001411  00000-0 -70593-4 0  9993,2 53798  53.2187 316.9561 0001731 120.3283 239.7881 15.08831926 70358,6917.905,95.438,540.968,538.573,0.0
53798.0,STARLINK-4712,PAYLOAD,2023-12-19 04:40:57,15.08833079,0.0001406,53.2178,316.6616,108.8774,251.2371,-5.2566e-05,-1.124e-05,0.0,0 STARLINK-4712,1 53798U 22111AB  23353.19510691 -.00001124  00000-0 -52566-4 0  9995,2 53798  53.2178 316.6616 0001406 108.8774 251.2371 15.08833079 71176,6917.902,95.438,540.739,538.794,0.0
53798.0,STARLINK-4712,PAYLOAD,2023-12-20 02:56:21,15.08840624,0.0001302,53.2173,312.5011,94.9066,265.2075,0.00015502,2.18e-05,0.0,0 STARLINK-4712,1 53798U 22111AB  23354.12246731  .00002180  00000-0  15502-3 0  9999,2 53798  53.2173 312.5011 0001302  94.9066 265.2075 15.08840624 70505,6917.878,95.438,540.644,538.843,0.0
53798.0,STARLINK-4712,PAYLOAD,2023-12-20 04:31:44,15.08845214,0.000145,53.2177,312.2042,108.4208,251.6941,0.00027738,4.13e-05,0.0,0 STARLINK-4712,1 53798U 22111AB  23354.18870609  .00004130  00000-0  27738-3 0  9993,2 53798  53.2177 312.2042 0001450 108.4208 251.6941 15.08845214 71325,6917.864,95.437,540.733,538.726,0.0
53798.0,STARLINK-4712,PAYLOAD,2023-12-21 04:22:30,15.08859597,0.0001555,53.2181,307.747,110.2012,249.9148,0.0004875,7.483e-05,0.0,0 STARLINK-4712,1 53798U 22111AB  23355.18230067  .00007483  00000-0  48750-3 0  9993,2 53798  53.2181 307.7470 0001555 110.2012 249.9148 15.08859597 70668,6917.82,95.436,540.761,538.61,0.0
53798.0,STARLINK-4712,PAYLOAD,2023-12-22 04:13:18,15.08843046,0.000144,53.2173,303.282,94.4224,265.6933,4.9345e-05,4.98e-06,0.0,0 STARLINK-4712,1 53798U 22111AB  23356.17590403  .00000498  00000-0  49345-4 0  9997,2 53798  53.2173 303.2820 0001440  94.4224 265.6933 15.08843046 70816,6917.871,95.437,540.732,538.74,0.0
53798.0,STARLINK-4712,PAYLOAD,2023-12-23 04:04:05,15.08841396,0.0002135,53.2184,298.8202,61.8522,298.2686,0.00010949,1.455e-05,0.0,0 STARLINK-4712,1 53798U 22111AB  23357.16950942  .00001455  00000-0  10949-3 0  9996,2 53798  53.2184 298.8202 0002135  61.8522 298.2686 15.08841396 71771,6917.876,95.437,541.218,538.264,0.0
53798.0,STARLINK-4712,PAYLOAD,2023-12-23 19:57:57,15.08839297,0.0001509,53.2173,295.8514,94.0942,266.0223,0.00019911,2.882e-05,0.0,0 STARLINK-4712,1 53798U 22111AB  23357.83191194  .00002882  00000-0  19911-3 0  9999,2 53798  53.2173 295.8514 0001509  94.0942 266.0223 15.08839297 71069,6917.883,95.438,540.791,538.704,0.0
53798.0,STARLINK-4712,PAYLOAD,2023-12-24 05:30:15,15.08856298,0.0001661,53.2167,294.0659,86.2521,273.8661,0.0004973,7.639e-05,0.0,0 STARLINK-4712,1 53798U 22111AB  23358.22934622  .00007639  00000-0  49730-3 0  9991,2 53798  53.2167 294.0659 0001661  86.2521 273.8661 15.08856298 71127,6917.831,95.437,540.845,538.547,0.0
53798.0,STARLINK-4712,PAYLOAD,2023-12-25 02:10:16,15.08843347,0.0001682,53.218,290.1983,88.0685,272.05,8.4445e-05,1.056e-05,0.0,0 STARLINK-4712,1 53798U 22111AB  23359.09047132  .00001056  00000-0  84445-4 0  9998,2 53798  53.2180 290.1983 0001682  88.0685 272.0500 15.08843347 71251,6917.87,95.437,540.899,538.572,0.0
53798.0,STARLINK-4712,PAYLOAD,2023-12-25 19:39:31,15.08840996,0.000166,53.2177,286.9276,93.5794,266.5388,4.1303e-05,3.69e-06,0.0,0 STARLINK-4712,1 53798U 22111AB  23359.81911412  .00000369  00000-0  41303-4 0  9991,2 53798  53.2177 286.9276 0001660  93.5794 266.5388 15.08840996 72174,6917.877,95.437,540.891,538.594,0.0
53798.0,STARLINK-4712,PAYLOAD,2023-12-26 05:11:49,15.08846762,0.0001476,53.2171,285.142,99.4333,260.6826,8.2863e-05,1.031e-05,0.0,0 STARLINK-4712,1 53798U 22111AB  23360.21655080  .00001031  00000-0  82863-4 0  9996,2 53798  53.2171 285.1420 0001476  99.4333 260.6826 15.08846762 71425,6917.86,95.437,540.746,538.704,0.0
53798.0,STARLINK-4712,PAYLOAD,2023-12-26 22:41:04,15.08840743,0.0001422,53.2171,281.8704,93.5784,266.5371,5.4667e-05,5.82e-06,0.0,0 STARLINK-4712,1 53798U 22111AB  23360.94519447  .00000582  00000-0  54667-4 0  9993,2 53798  53.2171 281.8704 0001422  93.5784 266.5371 15.08840743 72344,6917.878,95.438,540.727,538.759,0.0
53798.0,STARLINK-4712,PAYLOAD,2023-12-27 01:51:50,15.08846496,0.0001626,53.2184,281.2743,91.7247,268.3932,0.00014354,1.998e-05,0.0,0 STARLINK-4712,1 53798U 22111AB  23361.07767109  .00001998  00000-0  14354-3 0  9998,2 53798  53.2184 281.2743 0001626  91.7247 268.3932 15.08846496 72361,6917.861,95.437,540.85,538.601,0.0
53798.0,STARLINK-4712,PAYLOAD,2023-12-27 19:21:05,15.08842732,0.000174,53.2182,278.0068,81.2328,278.8862,8.5617e-05,1.075e-05,0.0,0 STARLINK-4712,1 53798U 22111AB  23361.80631464  .00001075  00000-0  85617-4 0  9990,2 53798  53.2182 278.0068 0001740  81.2328 278.8862 15.08842732 71663,6917.872,95.437,540.941,538.533,0.0
53798.0,STARLINK-4712,PAYLOAD,2023-12-27 22:31:51,15.0884082,0.0001531,53.2169,277.4099,112.1841,247.9314,3.3778e-05,2.5e-06,0.0,0 STARLINK-4712,1 53798U 22111AB  23361.93879283  .00000250  00000-0  33778-4 0  9992,2 53798  53.2169 277.4099 0001531 112.1841 247.9314 15.08840820 72494,6917.878,95.438,540.802,538.684,0.0
53798.0,STARLINK-4712,PAYLOAD,2023-12-28 03:18:00,15.08845095,0.0001334,53.2169,276.5179,97.1238,262.9906,9.3652e-05,1.203e-05,0.0,0 STARLINK-4712,1 53798U 22111AB  23362.13751070  .00001203  00000-0  93652-4 0  9994,2 53798  53.2169 276.5179 0001334  97.1238 262.9906 15.08845095 72523,6917.865,95.437,540.653,538.807,0.0
53798.0,STARLINK-4712,PAYLOAD,2023-12-28 22:22:39,15.08837013,0.0001372,53.2173,272.9574,99.2077,260.9071,-0.00013167,-2.383e-05,0.0,0 STARLINK-4712,1 53798U 22111AB  23362.93239658 -.00002383  00000-0 -13167-3 0  9999,2 53798  53.2173 272.9574 0001372  99.2077 260.9071 15.08837013 72648,6917.89,95.438,540.704,538.805,0.0
53798.0,STARLINK-4712,PAYLOAD,2023-12-29 03:08:48,15.08846945,0.0001508,53.2178,272.0607,89.4777,270.6388,3.6803e-05,2.98e-06,0.0,0 STARLINK-4712,1 53798U 22111AB  23363.13111366  .00000298  00000-0  36803-4 0  9991,2 53798  53.2178 272.0607 0001508  89.4777 270.6388 15.08846945 71866,6917.859,95.437,540.767,538.681,0.0
53798.0,STARLINK-4712,PAYLOAD,2023-12-29 04:44:11,15.08848106,0.0001496,53.2178,271.7624,89.0006,271.1157,5.1626e-05,5.34e-06,0.0,0 STARLINK-4712,1 53798U 22111AB  23363.19735303  .00000534  00000-0  51626-4 0  9993,2 53798  53.2178 271.7624 0001496  89.0006 271.1157 15.08848106 72680,6917.856,95.437,540.756,538.686,0.0
53798.0,STARLINK-4712,PAYLOAD,2023-12-29 22:13:26,15.08839613,0.0001439,53.2175,268.4908,107.6668,252.4481,7.4932e-05,9.05e-06,0.0,0 STARLINK-4712,1 53798U 22111AB  23363.92599739  .00000905  00000-0  74932-4 0  9992,2 53798  53.2175 268.4908 0001439 107.6668 252.4481 15.08839613 72790,6917.882,95.438,540.742,538.751,0.0
53798.0,STARLINK-4712,PAYLOAD,2023-12-30 02:59:35,15.08842128,0.0001332,53.2177,267.5986,76.8515,283.2626,0.00013559,1.871e-05,0.0,0 STARLINK-4712,1 53798U 22111AB  23364.12471553  .00001871  00000-0  13559-3 0  9998,2 53798  53.2177 267.5986 0001332  76.8515 283.2626 15.08842128 72011,6917.874,95.437,540.66,538.817,0.0
53798.0,STARLINK-4712,PAYLOAD,2023-12-30 22:04:13,15.08840248,0.0001596,53.2178,264.0319,76.3537,283.7632,5.7182e-05,6.22e-06,0.0,0 STARLINK-4712,1 53798U 22111AB  23364.91959973  .00000622  00000-0  57182-4 0  9996,2 53798  53.2178 264.0319 0001596  76.3537 283.7632 15.08840248 72940,6917.88,95.438,540.849,538.641,0.0
53798.0,STARLINK-4712,PAYLOAD,2023-12-31 17:08:52,15.08829184,0.0001684,53.2179,260.4645,80.2783,279.8399,-7.2193e-06,-4.03e-06,0.0,0 STARLINK-4712,1 53798U 22111AB  23365.71449130 -.00000403  00000-0 -72193-5 0  9993,2 53798  53.2179 260.4645 0001684  80.2783 279.8399 15.08829184 72254,6917.913,95.438,540.943,538.613,0.0
53798.0,STARLINK-4712,PAYLOAD,2023-12-31 21:55:01,15.08829756,0.0001563,53.218,259.5734,77.6046,282.5121,-4.2647e-05,-9.66e-06,0.0,0 STARLINK-4712,1 53798U 22111AB  23365.91321257 -.00000966  00000-0 -42647-4 0  9998,2 53798  53.2180 259.5734 0001563  77.6046 282.5121 15.08829756 73094,6917.912,95.438,540.858,538.695,0.0
53798.0,STARLINK-4712,PAYLOAD,2024-01-01 20:10:24,15.08847262,0.0001411,53.2173,255.4088,87.8342,272.2812,0.00012458,1.696e-05,0.0,0 STARLINK-4712,1 53798U 22111AB  24001.84055893  .00001696  00000-0  12458-3 0  9993,2 53798  53.2173 255.4088 0001411  87.8342 272.2812 15.08847262 72428,6917.858,95.437,540.699,538.747,0.0
